sat02620
1 02620U 63049H   20046.63529847  .00000068  00000-0  79833-4 0  9996
2 02620  89.9072  94.0668 0019285  57.6165 107.0146 13.58467654776205
